NORAD_CAT_ID,OBJECT_NAME,OBJECT_TYPE,EPOCH,MEAN_MOTION,ECCENTRICITY,INCLINATION,RA_OF_ASC_NODE,ARG_OF_PERICENTER,MEAN_ANOMALY,BSTAR,MEAN_MOTION_DOT,MEAN_MOTION_DDOT,TLE_LINE0,TLE_LINE1,TLE_LINE2,SEMIMAJOR_AXIS,PERIOD,APOGEE,PERIGEE,DECAYED
53018.0,STARLINK-4279,PAYLOAD,2024-02-09 19:22:28,15.08847369,0.0001443,53.2154,251.1343,96.196,263.9197,7.3475e-05,8.82e-06,0.0,0 STARLINK-4279,1 53018U 22076AJ  24040.80727887  .00000882  00000-0  73475-4 0  9999,2 53018  53.2154 251.1343 0001443  96.1960 263.9197 15.08847369 88881,6917.858,95.437,540.721,538.725,0.0
53018.0,STARLINK-4279,PAYLOAD,2024-02-10 00:08:38,15.08848954,0.0001462,53.2154,250.2418,105.6204,254.495,1.9064e-05,1.6e-07,0.0,0 STARLINK-4279,1 53018U 22076AJ  24041.00599717  .00000016  00000-0  19064-4 0  9994,2 53018  53.2154 250.2418 0001462 105.6204 254.4950 15.08848954 88447,6917.853,95.437,540.729,538.707,0.0
53018.0,STARLINK-4279,PAYLOAD,2024-02-10 19:13:15,15.08845339,0.0001405,53.2155,246.6729,98.2701,261.845,0.00011999,1.622e-05,0.0,0 STARLINK-4279,1 53018U 22076AJ  24041.80087825  .00001622  00000-0  11999-3 0  9996,2 53018  53.2155 246.6729 0001405  98.2701 261.8450 15.08845339 88562,6917.864,95.437,540.701,538.757,0.0
53018.0,STARLINK-4279,PAYLOAD,2024-02-11 20:39:26,15.08842576,0.0001284,53.2153,241.9153,89.2847,270.8292,3.8383e-05,3.23e-06,0.0,0 STARLINK-4279,1 53018U 22076AJ  24042.86071768  .00000323  00000-0  38383-4 0  9996,2 53018  53.2153 241.9153 0001284  89.2847 270.8292 15.08842576 89199,6917.873,95.437,540.626,538.849,0.0
53018.0,STARLINK-4279,PAYLOAD,2024-02-11 22:14:49,15.08842578,0.0001286,53.2153,241.6178,88.0957,272.0183,3.7549e-05,3.1e-06,0.0,0 STARLINK-4279,1 53018U 22076AJ  24042.92695760  .00000310  00000-0  37549-4 0  9996,2 53018  53.2153 241.6178 0001286  88.0957 272.0183 15.08842578 88738,6917.873,95.437,540.627,538.848,0.0
53018.0,STARLINK-4279,PAYLOAD,2024-02-12 12:33:17,15.08838248,0.0001216,53.2158,238.9444,80.5708,279.5421,6.8193e-05,7.98e-06,0.0,0 STARLINK-4279,1 53018U 22076AJ  24043.52312440  .00000798  00000-0  68193-4 0  9993,2 53018  53.2158 238.9444 0001216  80.5708 279.5421 15.08838248 89290,6917.886,95.438,540.592,538.91,0.0
53018.0,STARLINK-4279,PAYLOAD,2024-02-12 14:08:41,15.08837642,0.0001224,53.2158,238.6461,81.5401,278.573,6.0956e-05,6.82e-06,0.0,0 STARLINK-4279,1 53018U 22076AJ  24043.58936503  .00000682  00000-0  60956-4 0  9992,2 53018  53.2158 238.6461 0001224  81.5401 278.5730 15.08837642 88834,6917.888,95.438,540.599,538.906,0.0
53018.0,STARLINK-4279,PAYLOAD,2024-02-12 20:30:13,15.08840555,0.0001328,53.2165,237.4568,81.2506,278.8637,7.1941e-05,8.57e-06,0.0,0 STARLINK-4279,1 53018U 22076AJ  24043.85432224  .00000857  00000-0  71941-4 0  9993,2 53018  53.2165 237.4568 0001328  81.2506 278.8637 15.08840555 88875,6917.879,95.438,540.662,538.825,0.0
53018.0,STARLINK-4279,PAYLOAD,2024-02-13 12:24:04,15.08841334,0.0001389,53.2162,234.4836,80.7322,279.3827,5.2457e-05,5.47e-06,0.0,0 STARLINK-4279,1 53018U 22076AJ  24044.51672441  .00000547  00000-0  52457-4 0  9991,2 53018  53.2162 234.4836 0001389  80.7322 279.3827 15.08841334 88978,6917.876,95.437,540.702,538.78,0.0
53018.0,STARLINK-4279,PAYLOAD,2024-02-13 18:45:37,15.08842404,0.0001365,53.2165,233.2942,83.4306,276.6841,9.6435e-05,1.247e-05,0.0,0 STARLINK-4279,1 53018U 22076AJ  24044.78168256  .00001247  00000-0  96435-4 0  9996,2 53018  53.2165 233.2942 0001365  83.4306 276.6841 15.08842404 89484,6917.873,95.437,540.682,538.794,0.0
53018.0,STARLINK-4279,PAYLOAD,2024-02-14 12:14:51,15.08843195,0.0001406,53.2167,230.0231,86.3028,273.8124,9.9232e-05,1.292e-05,0.0,0 STARLINK-4279,1 53018U 22076AJ  24045.51032170  .00001292  00000-0  99232-4 0  9991,2 53018  53.2167 230.0231 0001406  86.3028 273.8124 15.08843195 89123,6917.871,95.437,540.708,538.763,0.0
53018.0,STARLINK-4279,PAYLOAD,2024-02-14 18:36:24,15.08846573,0.0001398,53.2167,228.8335,88.8994,271.2158,0.00012274,1.666e-05,0.0,0 STARLINK-4279,1 53018U 22076AJ  24045.77527869  .00001666  00000-0  12274-3 0  9998,2 53018  53.2167 228.8335 0001398  88.8994 271.2158 15.08846573 89168,6917.86,95.437,540.692,538.758,0.0
53018.0,STARLINK-4279,PAYLOAD,2024-02-15 05:44:06,15.08842624,0.0001368,53.2165,226.7518,88.2698,271.8451,8.5391e-05,1.071e-05,0.0,0 STARLINK-4279,1 53018U 22076AJ  24046.23896108  .00001071  00000-0  85391-4 0  9996,2 53018  53.2165 226.7518 0001368  88.2698 271.8451 15.08842624 89231,6917.872,95.437,540.684,538.791,0.0
53018.0,STARLINK-4279,PAYLOAD,2024-02-15 21:37:57,15.08841981,0.0001437,53.2171,223.7773,92.7364,267.3793,5.0185e-05,5.11e-06,0.0,0 STARLINK-4279,1 53018U 22076AJ  24046.90136174  .00000511  00000-0  50185-4 0  9991,2 53018  53.2171 223.7773 0001437  92.7364 267.3793 15.08841981 89330,6917.874,95.437,540.733,538.745,0.0
53018.0,STARLINK-4279,PAYLOAD,2024-02-16 16:42:35,15.08852367,0.0001731,53.2175,220.2072,95.4849,264.634,-0.00011304,-2.087e-05,0.0,0 STARLINK-4279,1 53018U 22076AJ  24047.69623844 -.00002087  00000-0 -11304-3 0  9994,2 53018  53.2175 220.2072 0001731  95.4849 264.6340 15.08852367 89926,6917.843,95.437,540.905,538.51,0.0
53018.0,STARLINK-4279,PAYLOAD,2024-02-16 21:28:44,15.08837859,0.0001545,53.2176,219.3146,104.7668,255.3496,0.00011977,1.619e-05,0.0,0 STARLINK-4279,1 53018U 22076AJ  24047.89496176  .00001619  00000-0  11977-3 0  9996,2 53018  53.2176 219.3146 0001545 104.7668 255.3496 15.08837859 89483,6917.887,95.438,540.821,538.683,0.0
53018.0,STARLINK-4279,PAYLOAD,2024-02-17 03:50:17,15.08838654,0.0001275,53.2161,218.1241,84.5149,275.5989,3.3042e-05,2.38e-06,0.0,0 STARLINK-4279,1 53018U 22076AJ  24048.15992363  .00000238  00000-0  33042-4 0  9999,2 53018  53.2161 218.1241 0001275  84.5149 275.5989 15.08838654 89990,6917.885,95.438,540.632,538.867,0.0
53018.0,STARLINK-4279,PAYLOAD,2024-02-17 14:57:59,15.08832423,0.0001338,53.2168,216.0428,97.8624,262.252,2.4465e-05,1.01e-06,0.0,0 STARLINK-4279,1 53018U 22076AJ  24048.62360916  .00000101  00000-0  24465-4 0  9992,2 53018  53.2168 216.0428 0001338  97.8624 262.2520 15.08832423 89594,6917.904,95.438,540.694,538.843,0.0
53018.0,STARLINK-4279,PAYLOAD,2024-02-17 18:08:45,15.08836357,0.0001246,53.2169,215.451,89.7604,270.3531,5.4951e-05,5.87e-06,0.0,0 STARLINK-4279,1 53018U 22076AJ  24048.75608641  .00000587  00000-0  54951-4 0  9997,2 53018  53.2169 215.4510 0001246  89.7604 270.3531 15.08836357 89611,6917.892,95.438,540.618,538.895,0.0
53018.0,STARLINK-4279,PAYLOAD,2024-02-18 14:48:47,15.08834786,0.0001261,53.2169,211.5857,84.4289,275.6847,1.0821e-05,-1.16e-06,0.0,0 STARLINK-4279,1 53018U 22076AJ  24049.61721230 -.00000116  00000-0  10821-4 0  9990,2 53018  53.2169 211.5857 0001261  84.4289 275.6847 15.08834786 89746,6917.896,95.438,540.634,538.889,0.0
53018.0,STARLINK-4279,PAYLOAD,2024-02-18 19:34:56,15.08840478,0.0001335,53.2172,210.6938,83.3546,276.7598,5.9288e-05,6.56e-06,0.0,0 STARLINK-4279,1 53018U 22076AJ  24049.81592819  .00000656  00000-0  59288-4 0  9999,2 53018  53.2172 210.6938 0001335  83.3546 276.7598 15.08840478 90243,6917.879,95.438,540.667,538.82,0.0
53018.0,STARLINK-4279,PAYLOAD,2024-02-19 14:39:34,15.08832071,0.0001338,53.2175,207.1256,86.2795,273.835,5.1535e-05,5.32e-06,0.0,0 STARLINK-4279,1 53018U 22076AJ  24050.61081633  .00000532  00000-0  51535-4 0  9996,2 53018  53.2175 207.1256 0001338  86.2795 273.8350 15.08832071 89894,6917.905,95.438,540.695,538.844,0.0
53018.0,STARLINK-4279,PAYLOAD,2024-02-19 17:50:20,15.08836793,0.0001377,53.2176,206.5308,83.6586,276.4562,5.006e-05,5.09e-06,0.0,0 STARLINK-4279,1 53018U 22076AJ  24050.74329434  .00000509  00000-0  50060-4 0  9990,2 53018  53.2176 206.5308 0001377  83.6586 276.4562 15.08836793 90383,6917.89,95.438,540.708,538.803,0.0
53018.0,STARLINK-4279,PAYLOAD,2024-02-20 03:22:39,15.08844929,0.000146,53.2179,204.7467,80.6583,279.4574,3.4875e-05,2.67e-06,0.0,0 STARLINK-4279,1 53018U 22076AJ  24051.14072936  .00000267  00000-0  34875-4 0  9994,2 53018  53.2179 204.7467 0001460  80.6583 279.4574 15.08844929 90442,6917.865,95.437,540.74,538.72,0.0
53018.0,STARLINK-4279,PAYLOAD,2024-02-20 14:30:20,15.08845562,0.000154,53.2176,202.6652,79.3398,280.7768,9.0043e-05,1.146e-05,0.0,0 STARLINK-4279,1 53018U 22076AJ  24051.60440867  .00001146  00000-0  90043-4 0  9993,2 53018  53.2176 202.6652 0001540  79.3398 280.7768 15.08845562 90040,6917.863,95.437,540.794,538.663,0.0
53018.0,STARLINK-4279,PAYLOAD,2024-02-20 19:16:29,15.08853159,0.0001444,53.2168,201.7716,79.1875,280.9279,0.00014787,2.067e-05,0.0,0 STARLINK-4279,1 53018U 22076AJ  24051.80312126  .00002067  00000-0  14787-3 0  9994,2 53018  53.2168 201.7716 0001444  79.1875 280.9279 15.08853159 90076,6917.84,95.437,540.704,538.706,0.0
53018.0,STARLINK-4279,PAYLOAD,2024-02-21 15:56:31,15.08837072,0.0001387,53.2168,197.9076,84.4516,275.6634,7.4756e-05,9.02e-06,0.0,0 STARLINK-4279,1 53018U 22076AJ  24052.66425304  .00000902  00000-0  74756-4 0  9991,2 53018  53.2168 197.9076 0001387  84.4516 275.6634 15.08837072 90676,6917.889,95.438,540.714,538.795,0.0
53018.0,STARLINK-4279,PAYLOAD,2024-02-22 14:11:55,15.08835144,0.0001458,53.217,193.7437,88.3999,271.716,-2.8513e-05,-7.42e-06,0.0,0 STARLINK-4279,1 53018U 22076AJ  24053.59161701 -.00000742  00000-0 -28513-4 0  9996,2 53018  53.2170 193.7437 0001458  88.3999 271.7160 15.08835144 90344,6917.895,95.438,540.769,538.752,0.0
53018.0,STARLINK-4279,PAYLOAD,2024-02-22 15:47:18,15.0883548,0.0001467,53.217,193.4461,89.4622,270.6539,-2.6146e-05,-7.04e-06,0.0,0 STARLINK-4279,1 53018U 22076AJ  24053.65785666 -.00000704  00000-0 -26146-4 0  9993,2 53018  53.2170 193.4461 0001467  89.4622 270.6539 15.08835480 90355,6917.894,95.438,540.774,538.744,0.0
53018.0,STARLINK-4279,PAYLOAD,2024-02-23 12:27:18,15.08842706,0.0001478,53.2173,189.5798,96.1901,263.926,8.8599e-05,1.122e-05,0.0,0 STARLINK-4279,1 53018U 22076AJ  24054.51896892  .00001122  00000-0  88599-4 0  9996,2 53018  53.2173 189.5798 0001478  96.1901 263.9260 15.08842706 90955,6917.872,95.437,540.76,538.715,0.0
